H1 CPF 01  gfz 2022 10 12 12  7852 tandemx   
H2 1003001  6202 36605    2022 10 12 00 59 42 2022 10 17 00 00 42   120 1 1  0 0 0
H9
10 0 59865  33102.000000  0      25598.796  -1338413.769  -6764097.416
10 0 59865  33222.000000  0    -599935.144   -670261.043  -6836398.112
10 0 59865  33342.000000  0   -1203191.923     20247.956  -6789498.628
10 0 59865  33462.000000  0   -1773443.595    720675.354  -6624206.320
10 0 59865  33582.000000  0   -2300745.480   1418225.295  -6343363.977
10 0 59865  33702.000000  0   -2776105.819   2099971.819  -5951806.298
10 0 59865  33822.000000  0   -3191638.176   2753093.333  -5456286.303
10 0 59865  33942.000000  0   -3540694.072   3365111.864  -4865370.817
10 0 59865  34062.000000  0   -3817974.072   3924132.096  -4189303.674
10 0 59865  34182.000000  0   -4019612.905   4419075.216  -3439837.347
10 0 59865  34302.000000  0   -4143236.194   4839902.601  -2630036.711
10 0 59865  34422.000000  0   -4187989.871   5177824.978  -1774057.096
10 0 59865  34542.000000  0   -4154540.391   5425492.011   -886898.982
10 0 59865  34662.000000  0   -4045043.990   5577157.975     15858.086
10 0 59865  34782.000000  0   -3863084.606   5628815.183    918335.296
10 0 59865  34902.000000  0   -3613583.172   5578295.039   1804641.989
10 0 59865  35022.000000  0   -3302679.236   5425331.803   2659166.317
10 0 59865  35142.000000  0   -2937586.303   5171585.670   3466859.411
10 0 59865  35262.000000  0   -2526427.727   4820627.219   4213505.743
10 0 59865  35382.000000  0   -2078056.911   4377884.460   4885976.960
10 0 59865  35502.000000  0   -1601866.518   3850552.811   5472463.788
10 0 59865  35622.000000  0   -1107590.351   3247470.448   5962681.794
10 0 59865  35742.000000  0    -605103.480   2578962.421   6348046.794
10 0 59865  35862.000000  0    -104225.321   1856657.809   6621818.514
10 0 59865  35982.000000  0     385471.345   1093284.251   6779213.061
10 0 59865  36102.000000  0     854842.844    302441.184   6817481.162
10 0 59865  36222.000000  0    1295344.238   -501641.711   6735952.745
10 0 59865  36342.000000  0    1699184.183  -1304359.981   6536049.063
10 0 59865  36462.000000  0    2059462.843  -2090999.011   6221259.494
10 0 59865  36582.000000  0    2370290.704  -2847004.028   5797085.438
10 0 59865  36702.000000  0    2626886.722  -3558251.466   5270949.517
10 0 59865  36822.000000  0    2825653.061  -4211316.014   4652070.985
10 0 59865  36942.000000  0    2964226.247  -4793729.290   3951310.075
10 0 59865  37062.000000  0    3041503.409  -5294224.936   3180980.234
10 0 59865  37182.000000  0    3057642.260  -5702964.192   2354632.837
10 0 59865  37302.000000  0    3014034.270  -6011736.847   1486816.120
10 0 59865  37422.000000  0    2913251.551  -6214130.983    592814.460
10 0 59865  37542.000000  0    2758970.698  -6305669.235   -311626.624
10 0 59865  37662.000000  0    2555872.889  -6283908.365  -1210587.025
10 0 59865  37782.000000  0    2309522.632  -6148495.125  -2088262.262
10 0 59865  37902.000000  0    2026229.934  -5901181.189  -2929248.252
10 0 59865  38022.000000  0    1712897.464  -5545795.745  -3718818.678
10 0 59865  38142.000000  0    1376858.261  -5088174.430  -4443183.715
10 0 59865  38262.000000  0    1025710.673  -4536051.338  -5089727.920
10 0 59865  38382.000000  0     667151.751  -3898917.182  -5647223.519
10 0 59865  38502.000000  0     308813.282  -3187846.390  -6106016.596
10 0 59865  38622.000000  0     -41895.957  -2415297.353  -6458183.068
10 0 59865  38742.000000  0    -377938.640  -1594890.603  -6697653.942
10 0 59865  38862.000000  0    -692785.335   -741168.974  -6820309.656
10 0 59865  38982.000000  0    -980536.778    130657.245  -6824043.510
10 0 59865  39102.000000  0   -1236031.151   1004975.446  -6708792.615
10 0 59865  39222.000000  0   -1454934.452   1866042.866  -6476538.660
10 0 59865  39342.000000  0   -1633812.353   2698262.660  -6131277.419
10 0 59865  39462.000000  0   -1770183.861   3486461.338  -5678959.052
10 0 59865  39582.000000  0   -1862555.157   4216163.511  -5127395.548
10 0 59865  39702.000000  0   -1910433.288   4873859.333  -4486137.811
10 0 59865  39822.000000  0   -1914319.437   5447260.272  -3766320.555
10 0 59865  39942.000000  0   -1875680.712   5925536.126  -2980477.264
10 0 59865  40062.000000  0   -1796900.928   6299529.068  -2142328.853
10 0 59865  40182.000000  0   -1681212.108   6561940.813  -1266547.166
10 0 59865  40302.000000  0   -1532607.023   6707485.372   -368497.223
10 0 59865  40422.000000  0   -1355735.082   6733005.400    536035.361
10 0 59865  40542.000000  0   -1155783.398   6637548.431   1431130.372
10 0 59865  40662.000000  0    -938346.492   6422394.931   2301024.794
10 0 59865  40782.000000  0    -709287.479   6091039.838   3130398.675
10 0 59865  40902.000000  0    -474595.232   5649131.594   3904650.938
10 0 59865  41022.000000  0    -240241.445   5104370.275   4610161.249
10 0 59865  41142.000000  0     -12039.898   4466362.724   5234535.048
10 0 59865  41262.000000  0     204489.131   3746441.018   5766817.113
10 0 59865  41382.000000  0     404243.741   2957454.471   6197680.780
10 0 59865  41502.000000  0     582653.442   2113531.762   6519586.446
10 0 59865  41622.000000  0     735778.136   1229823.037   6726907.315
10 0 59865  41742.000000  0     860391.102    322224.612   6816021.916
10 0 59865  41862.000000  0     954044.660   -592906.546   6785372.837
10 0 59865  41982.000000  0    1015117.411  -1499046.903   6635493.610
10 0 59865  42102.000000  0    1042842.396  -2379804.538   6369000.322
10 0 59865  42222.000000  0    1037315.709  -3219216.385   5990549.455
10 0 59865  42342.000000  0     999484.645  -4002040.079   5506759.974
10 0 59865  42462.000000  0     931117.231  -4714032.694   4926102.196
10 0 59865  42582.000000  0     834753.470  -5342214.716   4258756.467
10 0 59865  42702.000000  0     713638.409  -5875116.023   3516440.311
10 0 59865  42822.000000  0     571638.169  -6302995.916   2712204.512
10 0 59865  42942.000000  0     413140.634  -6618031.083   1860202.718
10 0 59865  43062.000000  0     242943.097  -6814467.207    975439.428
10 0 59865  43182.000000  0      66130.064  -6888732.835     73500.036
10 0 59865  43302.000000  0    -112057.001  -6839508.348   -829734.104
10 0 59865  43422.000000  0    -286352.692  -6667747.033  -1718375.274
10 0 59865  43542.000000  0    -451600.504  -6376650.744  -2576816.256
10 0 59865  43662.000000  0    -602882.442  -5971602.303  -3390010.116
10 0 59865  43782.000000  0    -735642.429  -5460055.128  -4143737.641
10 0 59865  43902.000000  0    -845800.105  -4851382.594  -4824855.694
10 0 59865  44022.000000  0    -929852.337  -4156693.645  -5421521.175
10 0 59865  44142.000000  0    -984960.447  -3388619.586  -5923388.990
10 0 59865  44262.000000  0   -1009021.249  -2561076.651  -6321781.369
10 0 59865  44382.000000  0   -1000721.018  -1689009.222  -6609826.547
10 0 59865  44502.000000  0    -959571.689   -788119.689  -6782565.807
10 0 59865  44622.000000  0    -885929.083    125411.019  -6837029.998
10 0 59865  44742.000000  0    -780991.895   1035208.304  -6772283.952
10 0 59865  44862.000000  0    -646782.379   1924989.468  -6589440.459
10 0 59865  44982.000000  0    -486109.408   2778847.454  -6291643.346
10 0 59865  45102.000000  0    -302513.407   3581529.856  -5884020.780
10 0 59865  45222.000000  0    -100193.595   4318709.814  -5373606.255
10 0 59865  45342.000000  0     116080.713   4977242.316  -4769228.112
10 0 59865  45462.000000  0     341073.203   5545404.261  -4081368.630
10 0 59865  45582.000000  0     569196.902   6013112.204  -3321991.887
10 0 59865  45702.000000  0     794641.334   6372112.275  -2504343.146
10 0 59865  45822.000000  0    1011507.967   6616138.731  -1642722.275
10 0 59865  45942.000000  0    1213950.818   6741036.064   -752233.737
10 0 59865  46062.000000  0    1396318.944   6744840.571    151481.977
10 0 59865  46182.000000  0    1553296.958   6627817.640   1052529.924
10 0 59865  46302.000000  0    1680038.892   6392454.335   1935047.854
10 0 59865  46422.000000  0    1772293.296   6043408.541   2783493.442
10 0 59865  46542.000000  0    1826516.157   5587414.920   3582925.760
10 0 59865  46662.000000  0    1839968.248   5033149.551   4319275.836
10 0 59865  46782.000000  0    1810794.678   4391055.815   4979598.764
10 0 59865  46902.000000  0    1738084.596   3673135.866   5552302.705
10 0 59865  47022.000000  0    1621909.449   2892717.301   6027347.252
10 0 59865  47142.000000  0    1463340.898   2064199.679   6396415.382
10 0 59865  47262.000000  0    1264446.615   1202783.032   6653053.985
10 0 59865  47382.000000  0    1028264.751    324185.146   6792779.851
10 0 59865  47502.000000  0     758757.680   -555644.655   6813152.388
10 0 59865  47622.000000  0     460745.396  -1420814.361   6713815.392
10 0 59865  47742.000000  0     139819.124  -2255776.569   6496503.064
10 0 59865  47862.000000  0    -197763.525  -3045608.340   6165011.715
10 0 59865  47982.000000  0    -545199.045  -3776279.468   5725135.355
10 0 59865  48102.000000  0    -895271.874  -4434902.294   5184568.955
10 0 59865  48222.000000  0   -1240500.859  -5009963.386   4552782.592
10 0 59865  48342.000000  0   -1573297.069  -5491534.432   3840862.525
10 0 59865  48462.000000  0   -1886127.707  -5871453.940   3061318.887
10 0 59865  48582.000000  0   -2171683.056  -6143474.280   2227865.795
10 0 59865  48702.000000  0   -2423042.770  -6303372.014   1355177.724
10 0 59865  48822.000000  0   -2633836.078  -6349018.607    458625.497
10 0 59865  48942.000000  0   -2798392.525  -6280409.348   -446002.044
10 0 59865  49062.000000  0   -2911879.357  -6099649.332  -1342784.881
10 0 59865  49182.000000  0   -2970422.322  -5810896.675  -2215960.765
10 0 59865  49302.000000  0   -2971206.831  -5420264.726  -3050209.789
10 0 59865  49422.000000  0   -2912556.507  -4935685.634  -3830928.547
10 0 59865  49542.000000  0   -2793987.119  -4366739.480  -4544486.691
99
